SCD 1                   
1 22490U 93009B   25084.70721957  .00001114  00000+0  25494-3 0  9998
2 22490  24.9688  95.9831 0042386  72.6123  88.9355 14.45791414696138
TECHSAT 1B (GO-32)      
1 25397U 98043D   25085.17392438  .00000424  00000+0  20378-3 0  9999
2 25397  98.9641  62.7462 0002349  76.5665 283.5775 14.24282516387779
SCD 2                   
1 25504U 98060A   25084.93457869  .00001009  00000+0  23174-3 0  9998
2 25504  24.9963 315.9350 0017027  67.4967  47.5156 14.45233083395405
DLR-TUBSAT              
1 25757U 99029B   25085.47803833  .00000586  00000+0  15611-3 0  9996
2 25757  98.6289  62.3409 0013023 272.3890  87.5814 14.52227768368367
TERRA                   
1 25994U 99068A   25085.49259905  .00001655  00000+0  34969-3 0  9994
2 25994  98.0072 146.2371 0002342 165.9475 312.5056 14.60575965344369
MAROC-TUBSAT            
1 27004U 01056D   25084.97929253  .00000033  00000+0  89725-4 0  9990
2 27004  99.7682 249.1401 0019463 209.1455 267.2189 13.70237312164809
AQUA                    
1 27424U 02022A   25085.49735736  .00003648  00000+0  75292-3 0  9997
2 27424  98.3690  42.8594 0000961  58.3719  59.5463 14.61032021217919
IRS-P6 (RESOURCESAT-1)  
1 28051U 03046A   25085.50575774  .00000758  00000+0  26964-3 0  9998
2 28051  98.2512 137.4704 0063426 244.0471 252.7593 14.35923296116302
SHIYAN 1 (SY-1)         
1 28220U 04012A   25085.40083841  .00025580  00000+0  11498-2 0  9993
2 28220  97.9282 132.4842 0008846 140.1933 219.9952 15.21087545142938
AURA                    
1 28376U 04026A   25084.88470255  .00003403  00000+0  71611-3 0  9994
2 28376  98.2859  34.6070 0001195  75.6447 284.4886 14.60170776100761
IRS-P5 (CARTOSAT-1)     
1 28649U 05017A   25085.14926439  .00004506  00000+0  48113-3 0  9994
2 28649  97.5775 122.8710 0002677 101.3884 258.7635 14.89276121 77167
SINAH 1                 
1 28893U 05043D   25085.21610422  .00001801  00000+0  35573-3 0  9995
2 28893  98.2236 213.7021 0013637 236.9134 123.0759 14.63589027 35220
EROS B                  
1 29079U 06014A   25085.57693640  .00060417  00000+0  19002-2 0  9999
2 29079  97.3379 198.8567 0005763 299.8147  60.2522 15.32728823 50476
RESURS-DK 1             
1 29228U 06021A   25084.91909651  .00007593  00000+0  46755-3 0  9994
2 29228  69.9337  57.5024 0007660 284.9362  75.0955 15.10347265 34820
ARIRANG-2 (KOMPSAT-2)   
1 29268U 06031A   25085.54396677  .00001175  00000+0  23138-3 0  9997
2 29268  97.8428 286.6044 0015683  56.6080 328.5084 14.64195922996057
LAPAN-TUBSAT            
1 29709U 07001A   25085.48246800  .00002077  00000+0  24895-3 0  9993
2 29709  98.1046  70.6570 0011806 196.2125 163.8713 14.85157706984693
HAIYANG-1B              
1 31113U 07010A   25085.21166615  .00000483  00000+0  19980-3 0  9999
2 31113  98.3122  80.6017 0014863  89.7064 270.5822 14.30856021937302
COSMO-SKYMED 1          
1 31598U 07023A   25085.53253689  .00001839  00000+0  23762-3 0  9992
2 31598  97.8865 270.6343 0001546  89.5974 270.5416 14.82139775963026
TERRASAR-X              
1 31698U 07026A   25085.48505156  .00008261  00000+0  39626-3 0  9991
2 31698  97.4455  94.5862 0001949  84.1993 275.9463 15.19140829985912
WORLDVIEW-1 (WV-1)      
1 32060U 07041A   25084.61525907  .00020514  00000+0  83944-3 0  9999
2 32060  97.3852 205.9362 0001041 342.1797  17.9404 15.24352350974592
YAOGAN-3                
1 32289U 07055A   25085.48286819  .00006434  00000+0  70212-3 0  9998
2 32289  97.8617 114.3158 0001968  99.3774 260.7665 14.88263005939279
COSMO-SKYMED 2          
1 32376U 07059A   25085.16119585  .00001956  00000+0  25222-3 0  9994
2 32376  97.8925 270.2638 0001453  85.5767 274.5612 14.82145707935713
RADARSAT-2              
1 32382U 07061A   25085.50415827  .00000284  00000+0  12712-3 0  9993
2 32382  98.5813  93.8178 0001244  89.6079 270.5246 14.29984326902083
CARTOSAT-2A             
1 32783U 08021A   25085.48280542  .00002573  00000+0  35674-3 0  9991
2 32783  97.8246 142.9666 0012540 124.5063 235.7335 14.78755596912724
HUANJING 1A (HJ-1A)     
1 33320U 08041A   25085.48738469  .00004524  00000+0  57016-3 0  9999
2 33320  97.6399  85.1221 0020093 163.0156 197.1734 14.82315631892141
HUANJING 1B (HJ-1B)     
1 33321U 08041B   25085.49632445  .00003265  00000+0  41349-3 0  9991
2 33321  97.6298  89.4043 0036436 209.8896 150.0238 14.81969947892160
GEOEYE 1                
1 33331U 08042A   25085.22073376  .00002198  00000+0  42278-3 0  9992
2 33331  98.1164 159.8799 0004623  39.5891 320.5648 14.64591517884597
THEOS                   
1 33396U 08049A   25085.14038716  .00000259  00000+0  14168-3 0  9993
2 33396  98.6173 150.4264 0001330  96.1571 263.9758 14.20083379854394
COSMO-SKYMED 3          
1 33412U 08054A   25085.52184600  .00009220  00000+0  69450-3 0  9995
2 33412  97.8768 291.6001 0017126 339.6136  20.4403 15.02610599889610
YAOGAN-4                
1 33446U 08061A   25085.07525246  .00003798  00000+0  48728-3 0  9994
2 33446  97.9005  18.3060 0016384  89.8376 270.4715 14.81733784879278
GOSAT (IBUKI)           
1 33492U 09002A   25084.77491360  .00002029  00000+0  36603-3 0  9991
2 33492  98.0525 197.3577 0001286  88.5212 271.6140 14.67561957865690
YAOGAN-6                
1 34839U 09021A   25085.45238675  .00152183  00000+0  79058-3 0  9990
2 34839  97.1980  62.5644 0008741 173.0176 187.1216 15.80512002887479
DEIMOS-1                
1 35681U 09041A   25085.14324079  .00002262  00000+0  34780-3 0  9993
2 35681  97.6938 258.3905 0001626 144.3100 215.8218 14.74428121840842
DUBAISAT-1              
1 35682U 09041B   25085.12447759  .00004216  00000+0  65331-3 0  9990
2 35682  97.9407 220.4383 0011809  72.3404 287.9093 14.73652486839131
OCEANSAT-2              
1 35931U 09051A   25085.54111985 -.00000034  00000+0  24683-5 0  9995
2 35931  98.2312 112.5078 0016674  63.4754 296.8120 13.99571943816717
WORLDVIEW-2 (WV-2)      
1 35946U 09055A   25085.20430494  .00000653  00000+0  23420-3 0  9999
2 35946  98.4837 159.9673 0005218 116.9075 243.2645 14.37149903811392
SMOS                    
1 36036U 09059A   25085.49494995  .00001088  00000+0  36098-3 0  9999
2 36036  98.4435 274.3392 0001228  83.5383 276.5944 14.39762493809176
YAOGAN-7                
1 36110U 09069A   25085.48849194  .00002034  00000+0  29274-3 0  9997
2 36110  98.0675 327.7602 0025944  43.7827 316.5434 14.77265544823554
TANDEM-X                
1 36605U 10030A   25085.48505031  .00006000  00000+0  28877-3 0  9990
2 36605  97.4457  94.5854 0001695  89.5017 270.6412 15.19141224818665
CARTOSAT-2B             
1 36795U 10035A   25085.38334555  .00002848  00000+0  39488-3 0  9991
2 36795  97.8185 142.2985 0011400 199.0237 161.0550 14.78682107793751
YAOGAN-10               
1 36834U 10038A   25085.55841943  .00002415  00000+0  29633-3 0  9992
2 36834  97.9327 107.0864 0001658  96.3806  17.9513 14.84022038790869
COSMO-SKYMED 4          
1 37216U 10060A   25085.17391498  .00001941  00000+0  25018-3 0  9991
2 37216  97.8867 270.2830 0001377  86.1305 274.0065 14.82173695778269
RESOURCESAT-2           
1 37387U 11015A   25085.46562481  .00000772  00000+0  37241-3 0  9997
2 37387  98.8161 149.6806 0014441  63.7805 296.4854 14.21553045723099
HAIYANG-2A              
1 37781U 11043A   25085.47356003  .00000056  00000+0  98043-4 0  9991
2 37781  99.3346  90.4332 0001649  72.3331 287.8001 13.78808154685237
RASAT                   
1 37791U 11044D   25085.50364251  .00002168  00000+0  39047-3 0  9995
2 37791  98.0652 178.6756 0021231 167.6392 203.3877 14.67426622727536
SRMSAT                  
1 37841U 11058D   25084.80218400  .00000774  00000+0  27743-3 0  9993
2 37841  19.9714 253.1048 0011726 311.8088  76.3344 14.11395437694391
PLEIADES 1A             
1 38012U 11076F   25085.50984773  .00001424  00000+0  31639-3 0  9997
2 38012  98.2025 161.9348 0001646  94.6881  18.9506 14.58499962706747
ZIYUAN 1-02C (ZY 1-02C) 
1 38038U 11079A   25085.52469720  .00001542  00000+0  52764-3 0  9993
2 38038  98.4596 155.9649 0006225 195.7649 281.1856 14.37646012694925
ZIYUAN 3-1 (ZY 3-1)     
1 38046U 12001A   25085.51042336  .00028243  00000+0  51845-3 0  9993
2 38046  97.2023 150.0664 0003945 168.9874 191.1464 15.49216357734397
ARIRANG-3 (KOMPSAT-3)   
1 38338U 12025B   25085.47353538  .00002170  00000+0  43896-3 0  9995
2 38338  98.2978  38.6297 0008431  70.3681 289.8429 14.62343178686029
EXACTVIEW-1 (ADS-1B)    
1 38709U 12039C   25085.16357783  .00000603  00000+0  27839-3 0  9992
2 38709  98.9457 188.3520 0011249  28.1396 332.0388 14.24771649658904
SPOT 6                  
1 38755U 12047A   25085.16183608  .00001374  00000+0  30501-3 0  9991
2 38755  98.1840 154.2826 0001025 101.6516 258.4799 14.58607757667773
PLEIADES 1B             
1 39019U 12068A   25085.45401677  .00001551  00000+0  34342-3 0  9993
2 39019  98.1996 161.8504 0001412  94.1368 265.9993 14.58545216655583
GOKTURK 2               
1 39030U 12073A   25085.55326248  .00001736  00000+0  26592-3 0  9996
2 39030  97.7201 299.7035 0001507  62.6529 297.4833 14.74861783658544
LANDSAT 8               
1 39084U 13008A   25085.50574514  .00001395  00000+0  31944-3 0  9998
2 39084  98.1924 157.1941 0001102  81.9174 278.2150 14.57123367644526
SARAL                   
1 39086U 13009A   25085.53389558  .00000467  00000+0  18776-3 0  9993
2 39086  98.5541 272.8565 0002381 143.8417 216.2928 14.32690829631506
GAOFEN-1                
1 39150U 13018A   25085.52297450  .00002418  00000+0  35370-3 0  9990
2 39150  97.9547 160.3833 0016374 267.9009  92.0326 14.76512915642228
VNREDSAT 1              
1 39160U 13021B   25085.15487047  .00002209  00000+0  42306-3 0  9992
2 39160  97.9575 149.2872 0001586  98.2660 261.8723 14.64752133634713
ARIRANG-5 (KOMPSAT-5)   
1 39227U 13042A   25085.16556357  .00005070  00000+0  36660-3 0  9996
2 39227  97.6207 273.1235 0001883 188.6119 171.5075 15.04477276636557
SKYSAT-A                
1 39418U 13066C   25085.12343514  .00008253  00000+0  51808-3 0  9996
2 39418  97.4445 143.1023 0024338  62.0215 298.3473 15.09287170620813
